{"type": "FeatureCollection", "features": [ {"type": "Feature", "properties": {"norad_id": 31931, "name": "FENGYUN 1C DEB", "group": "fengyun-1c-debris", "lat": -7.87561933518772, "lon": 117.82944903141933, "alt_km": 1014.6381633420988, "timestamp": "2025-12-14T22:38:41.042857+00:00", "meta": {"OBJECT_NAME": "FENGYUN 1C DEB", "OBJECT_ID": "1999-025CMG", "EPOCH": "2025-12-11T14:58:14.235168", "MEAN_MOTION": 13.42619022, "ECCENTRICITY": 0.04232838, "INCLINATION": 97.8134, "RA_OF_ASC_NODE": 296.3349, "ARG_OF_PERICENTER": 272.5371, "MEAN_ANOMALY": 82.7388, "EPHEMERIS_TYPE": 0, "CLASSIFICATION_TYPE": "U", "NORAD_CAT_ID": 31931, "ELEMENT_SET_NO": 999, "REV_AT_EPOCH": 65207, "BSTAR": 0.0016768042, "MEAN_MOTION_DOT": 1.586e-05, "MEAN_MOTION_DDOT": 0}, "tle": {"line1": "1 31931U 99025CMG 25345.62377587  .00001586  00000+0  16768-2 0  9995", "line2": "2 31931  97.8134 296.3349 0423283 272.5371  82.7388 13.42619022652072"}}, "geometry": {"type": "Point", "coordinates": [117.82944903141933, -7.87561933518772]}}, {"type": "Feature", "properties": {"norad_id": 31934, "name": "FENGYUN 1C DEB", "group": "fengyun-1c-debris", "lat": -12.35201935378223, "lon": 40.58024721657858, "alt_km": 560.6760382363645, "timestamp": "2025-12-14T22:38:41.042867+00:00", "meta": {"OBJECT_NAME": "FENGYUN 1C DEB", "OBJECT_ID": "1999-025CMK", "EPOCH": "2025-12-04T09:16:56.352576", "MEAN_MOTION": 15.05606214, "ECCENTRICITY": 0.0038121, "INCLINATION": 98.8816, "RA_OF_ASC_NODE": 26.4564, "ARG_OF_PERICENTER": 260.5868, "MEAN_ANOMALY": 99.1044, "EPHEMERIS_TYPE": 0, "CLASSIFICATION_TYPE": "U", "NORAD_CAT_ID": 31934, "ELEMENT_SET_NO": 999, "REV_AT_EPOCH": 60717, "BSTAR": 0.0071095, "MEAN_MOTION_DOT": 0.00105581, "MEAN_MOTION_DDOT": 0}, "tle": {"line1": "1 31934U 99025CMK 25338.38676334  .00105581  00000+0  71095-2 0  9999", "line2": "2 31934  98.8816  26.4564 0038121 260.5868  99.1044 15.05606214607177"}}, "geometry": {"type": "Point", "coordinates": [40.58024721657858, -12.35201935378223]}}, {"type": "Feature", "properties": {"norad_id": 31937, "name": "FENGYUN 1C DEB", "group": "fengyun-1c-debris", "lat": 29.68455971584491, "lon": -95.80679932426929, "alt_km": 721.3040535061909, "timestamp": "2025-12-14T22:38:41.042879+00:00", "meta": {"OBJECT_NAME": "FENGYUN 1C DEB", "OBJECT_ID": "1999-025CMN", "EPOCH": "2025-12-06T23:52:27.149088", "MEAN_MOTION": 14.78022374, "ECCENTRICITY": 0.0162921, "INCLINATION": 99.2561, "RA_OF_ASC_NODE": 69.7316, "ARG_OF_PERICENTER": 315.3928, "MEAN_ANOMALY": 43.4262, "EPHEMERIS_TYPE": 0, "CLASSIFICATION_TYPE": "U", "NORAD_CAT_ID": 31937, "ELEMENT_SET_NO": 999, "REV_AT_EPOCH": 65984, "BSTAR": 0.0011794166, "MEAN_MOTION_DOT": 0.00010567, "MEAN_MOTION_DDOT": 0}, "tle": {"line1": "1 31937U 99025CMN 25340.99475867  .00010567  00000+0  11794-2 0  9999", "line2": "2 31937  99.2561  69.7316 0162921 315.3928  43.4262 14.78022374659842"}}, "geometry": {"type": "Point", "coordinates": [-95.80679932426929, 29.68455971584491]}}, {"type": "Feature", "properties": {"norad_id": 31938, "name": "FENGYUN 1C DEB", "group": "fengyun-1c-debris", "lat": -60.181817383939176, "lon": -175.24108470741203, "alt_km": 693.7310991817112, "timestamp": "2025-12-14T22:38:41.042890+00:00", "meta": {"OBJECT_NAME": "FENGYUN 1C DEB", "OBJECT_ID": "1999-025CMP", "EPOCH": "2025-12-13T19:53:06.832320", "MEAN_MOTION": 14.95628695, "ECCENTRICITY": 0.01527822, "INCLINATION": 98.9296, "RA_OF_ASC_NODE": 19.4118, "ARG_OF_PERICENTER": 62.7282, "MEAN_ANOMALY": 298.9403, "EPHEMERIS_TYPE": 0, "CLASSIFICATION_TYPE": "U", "NORAD_CAT_ID": 31938, "ELEMENT_SET_NO": 999, "REV_AT_EPOCH": 99152, "BSTAR": 0.00051745231, "MEAN_MOTION_DOT": 7.194e-05, "MEAN_MOTION_DDOT": 0}, "tle": {"line1": "1 31938U 99025CMP 25347.82855130  .00007194  00000+0  51745-3 0  9997", "line2": "2 31938  98.9296  19.4118 0152782  62.7282 298.9403 14.95628695991521"}}, "geometry": {"type": "Point", "coordinates": [-175.24108470741203, -60.181817383939176]}}, {"type": "Feature", "properties": {"norad_id": 31944, "name": "FENGYUN 1C DEB", "group": "fengyun-1c-debris", "lat": 14.375778905463058, "lon": -41.111506367162434, "alt_km": 961.0498759070579, "timestamp": "2025-12-14T22:38:41.042902+00:00", "meta": {"OBJECT_NAME": "FENGYUN 1C DEB", "OBJECT_ID": "1999-025CMV", "EPOCH": "2025-12-12T04:22:40.814976", "MEAN_MOTION": 14.11787529, "ECCENTRICITY": 0.0151811, "INCLINATION": 99.2035, "RA_OF_ASC_NODE": 133.6743, "ARG_OF_PERICENTER": 5.8705, "MEAN_ANOMALY": 173.5719, "EPHEMERIS_TYPE": 0, "CLASSIFICATION_TYPE": "U", "NORAD_CAT_ID": 31944, "ELEMENT_SET_NO": 999, "REV_AT_EPOCH": 62902, "BSTAR": 0.0007470391, "MEAN_MOTION_DOT": 1.471e-05, "MEAN_MOTION_DDOT": 0}, "tle": {"line1": "1 31944U 99025CMV 25346.18241684  .00001471  00000+0  74704-3 0  9997", "line2": "2 31944  99.2035 133.6743 0151811   5.8705 173.5719 14.11787529629027"}}, "geometry": {"type": "Point", "coordinates": [-41.111506367162434, 14.375778905463058]}}, {"type": "Feature", "properties": {"norad_id": 31945, "name": "FENGYUN 1C DEB", "group": "fengyun-1c-debris", "lat": -42.387003351460734, "lon": -122.96884429153177, "alt_km": 805.5825774215518, "timestamp": "2025-12-14T22:38:41.042912+00:00", "meta": {"OBJECT_NAME": "FENGYUN 1C DEB", "OBJECT_ID": "1999-025CMW", "EPOCH": "2025-12-13T11:47:25.444608", "MEAN_MOTION": 14.20810827, "ECCENTRICITY": 0.00610185, "INCLINATION": 98.9627, "RA_OF_ASC_NODE": 63.8406, "ARG_OF_PERICENTER": 284.9979, "MEAN_ANOMALY": 74.4449, "EPHEMERIS_TYPE": 0, "CLASSIFICATION_TYPE": "U", "NORAD_CAT_ID": 31945, "ELEMENT_SET_NO": 999, "REV_AT_EPOCH": 95206, "BSTAR": 0.0023325196, "MEAN_MOTION_DOT": 5.09e-05, "MEAN_MOTION_DDOT": 0}, "tle": {"line1": "1 31945U 99025CMW 25347.49126672  .00005090  00000+0  23325-2 0  9995", "line2": "2 31945  98.9627  63.8406 0061018 284.9979  74.4449 14.20810827952063"}}, "geometry": {"type": "Point", "coordinates": [-122.96884429153177, -42.387003351460734]}}, {"type": "Feature", "properties": {"norad_id": 31946, "name": "FENGYUN 1C DEB", "group": "fengyun-1c-debris", "lat": 62.47555823995756, "lon": 31.672663278099908, "alt_km": 775.5483062397934, "timestamp": "2025-12-14T22:38:41.042922+00:00", "meta": {"OBJECT_NAME": "FENGYUN 1C DEB", "OBJECT_ID": "1999-025CMX", "EPOCH": "2025-12-12T21:11:04.797024", "MEAN_MOTION": 14.16435479, "ECCENTRICITY": 0.00822373, "INCLINATION": 98.8979, "RA_OF_ASC_NODE": 47.1081, "ARG_OF_PERICENTER": 49.4272, "MEAN_ANOMALY": 311.4022, "EPHEMERIS_TYPE": 0, "CLASSIFICATION_TYPE": "U", "NORAD_CAT_ID": 31946, "ELEMENT_SET_NO": 999, "REV_AT_EPOCH": 64010, "BSTAR": 0.0019247318, "MEAN_MOTION_DOT": 3.913e-05, "MEAN_MOTION_DDOT": 0}, "tle": {"line1": "1 31946U 99025CMX 25346.88269441  .00003913  00000+0  19247-2 0  9990", "line2": "2 31946  98.8979  47.1081 0082237  49.4272 311.4022 14.16435479640104"}}, "geometry": {"type": "Point", "coordinates": [31.672663278099908, 62.47555823995756]}}, {"type": "Feature", "properties": {"norad_id": 31948, "name": "FENGYUN 1C DEB", "group": "fengyun-1c-debris", "lat": -0.48434699664087966, "lon": -130.54182976215702, "alt_km": 816.5256858678295, "timestamp": "2025-12-14T22:38:41.042932+00:00", "meta": {"OBJECT_NAME": "FENGYUN 1C DEB", "OBJECT_ID": "1999-025CMZ", "EPOCH": "2025-12-14T03:27:04.644864", "MEAN_MOTION": 14.2830578, "ECCENTRICITY": 0.00235551, "INCLINATION": 99.3923, "RA_OF_ASC_NODE": 48.6786, "ARG_OF_PERICENTER": 19.4303, "MEAN_ANOMALY": 11.0256, "EPHEMERIS_TYPE": 0, "CLASSIFICATION_TYPE": "U", "NORAD_CAT_ID": 31948, "ELEMENT_SET_NO": 999, "REV_AT_EPOCH": 95048, "BSTAR": 0.0016789951, "MEAN_MOTION_DOT": 4.154e-05, "MEAN_MOTION_DDOT": 0}, "tle": {"line1": "1 31948U 99025CMZ 25348.14380376  .00004154  00000+0  16790-2 0  9992", "line2": "2 31948  99.3923  48.6786 0023555  19.4303  11.0256 14.28305780950480"}}, "geometry": {"type": "Point", "coordinates": [-130.54182976215702, -0.48434699664087966]}}, {"type": "Feature", "properties": {"norad_id": 31949, "name": "FENGYUN 1C DEB", "group": "fengyun-1c-debris", "lat": -81.14397351961581, "lon": 49.06627856381695, "alt_km": 805.2514913525738, "timestamp": "2025-12-14T22:38:41.042944+00:00", "meta": {"OBJECT_NAME": "FENGYUN 1C DEB", "OBJECT_ID": "1999-025CNA", "EPOCH": "2025-11-23T05:03:27.897984", "MEAN_MOTION": 14.1687356, "ECCENTRICITY": 0.01252295, "INCLINATION": 98.5419, "RA_OF_ASC_NODE": 313.4803, "ARG_OF_PERICENTER": 269.0533, "MEAN_ANOMALY": 89.6292, "EPHEMERIS_TYPE": 0, "CLASSIFICATION_TYPE": "U", "NORAD_CAT_ID": 31949, "ELEMENT_SET_NO": 999, "REV_AT_EPOCH": 95228, "BSTAR": 0.00041514195, "MEAN_MOTION_DOT": 8.56e-06, "MEAN_MOTION_DDOT": 0}, "tle": {"line1": "1 31949U 99025CNA 25327.21073956  .00000856  00000+0  41514-3 0  9999", "line2": "2 31949  98.5419 313.4803 0125229 269.0533  89.6292 14.16873560952288"}}, "geometry": {"type": "Point", "coordinates": [49.06627856381695, -81.14397351961581]}}, {"type": "Feature", "properties": {"norad_id": 31952, "name": "FENGYUN 1C DEB", "group": "fengyun-1c-debris", "lat": 0.38986707512144436, "lon": 106.12832051245093, "alt_km": 694.9024403443445, "timestamp": "2025-12-14T22:38:41.042955+00:00", "meta": {"OBJECT_NAME": "FENGYUN 1C DEB", "OBJECT_ID": "1999-025CND", "EPOCH": "2025-12-13T13:36:01.371456", "MEAN_MOTION": 14.53501216, "ECCENTRICITY": 0.01139637, "INCLINATION": 98.9542, "RA_OF_ASC_NODE": 104.719, "ARG_OF_PERICENTER": 289.9881, "MEAN_ANOMALY": 68.907, "EPHEMERIS_TYPE": 0, "CLASSIFICATION_TYPE": "U", "NORAD_CAT_ID": 31952, "ELEMENT_SET_NO": 999, "REV_AT_EPOCH": 97221, "BSTAR": 0.00063433003, "MEAN_MOTION_DOT": 2.825e-05, "MEAN_MOTION_DDOT": 0}, "tle": {"line1": "1 31952U 99025CND 25347.56668254  .00002825  00000+0  63433-3 0  9996", "line2": "2 31952  98.9542 104.7190 0113963 289.9881  68.9070 14.53501216972218"}}, "geometry": {"type": "Point", "coordinates": [106.12832051245093, 0.38986707512144436]}}]}